[{"OBJECT_NAME":"IRIDIUM 173","OBJECT_ID":"2019-002D","EPOCH":"2026-03-05T20:37:42.716352","MEAN_MOTION":14.34217322,"ECCENTRICITY":0.0002123,"INCLINATION":86.3965,"RA_OF_ASC_NODE":36.7334,"ARG_OF_PERICENTER":82.8713,"MEAN_ANOMALY":277.2724,"EPHEMERIS_TYPE":0,"CLASSIFICATION_TYPE":"U","NORAD_CAT_ID":43925,"ELEMENT_SET_NO":999,"REV_AT_EPOCH":37414,"BSTAR":7.1937e-5,"MEAN_MOTION_DOT":2.21e-6,"MEAN_MOTION_DDOT":0},{"OBJECT_NAME":"IRIDIUM 169","OBJECT_ID":"2019-002E","EPOCH":"2026-03-05T14:44:22.240320","MEAN_MOTION":14.38610857,"ECCENTRICITY":0.0001521,"INCLINATION":86.4168,"RA_OF_ASC_NODE":68.4928,"ARG_OF_PERICENTER":77.3548,"MEAN_ANOMALY":282.782,"EPHEMERIS_TYPE":0,"CLASSIFICATION_TYPE":"U","NORAD_CAT_ID":43926,"ELEMENT_SET_NO":999,"REV_AT_EPOCH":37533,"BSTAR":6.1114e-5,"MEAN_MOTION_DOT":2.07e-6,"MEAN_MOTION_DDOT":0},{"OBJECT_NAME":"IRIDIUM 172","OBJECT_ID":"2019-002F","EPOCH":"2026-03-05T20:28:34.866912","MEAN_MOTION":14.34218292,"ECCENTRICITY":0.0002358,"INCLINATION":86.3966,"RA_OF_ASC_NODE":36.7436,"ARG_OF_PERICENTER":86.0557,"MEAN_ANOMALY":274.0909,"EPHEMERIS_TYPE":0,"CLASSIFICATION_TYPE":"U","NORAD_CAT_ID":43927,"ELEMENT_SET_NO":999,"REV_AT_EPOCH":37415,"BSTAR":2.7821e-5,"MEAN_MOTION_DOT":9.8e-7,"MEAN_MOTION_DDOT":0},{"OBJECT_NAME":"IRIDIUM 175","OBJECT_ID":"2019-002G","EPOCH":"2026-03-05T16:58:51.676320","MEAN_MOTION":14.72249685,"ECCENTRICITY":0.0002356,"INCLINATION":86.1536,"RA_OF_ASC_NODE":334.5482,"ARG_OF_PERICENTER":110.3861,"MEAN_ANOMALY":249.7609,"EPHEMERIS_TYPE":0,"CLASSIFICATION_TYPE":"U","NORAD_CAT_ID":43928,"ELEMENT_SET_NO":999,"REV_AT_EPOCH":38401,"BSTAR":0.00011359,"MEAN_MOTION_DOT":7.41e-6,"MEAN_MOTION_DDOT":0},{"OBJECT_NAME":"IRIDIUM 171","OBJECT_ID":"2019-002H","EPOCH":"2026-03-05T09:58:22.914336","MEAN_MOTION":14.34217398,"ECCENTRICITY":0.0001967,"INCLINATION":86.397,"RA_OF_ASC_NODE":37.222,"ARG_OF_PERICENTER":91.6685,"MEAN_ANOMALY":268.4736,"EPHEMERIS_TYPE":0,"CLASSIFICATION_TYPE":"U","NORAD_CAT_ID":43929,"ELEMENT_SET_NO":999,"REV_AT_EPOCH":37408,"BSTAR":-8.5232e-6,"MEAN_MOTION_DOT":-4.0e-8,"MEAN_MOTION_DDOT":0},{"OBJECT_NAME":"IRIDIUM 170","OBJECT_ID":"2019-002J","EPOCH":"2026-03-05T20:30:07.566336","MEAN_MOTION":14.72252439,"ECCENTRICITY":0.0002718,"INCLINATION":86.6086,"RA_OF_ASC_NODE":36.7291,"ARG_OF_PERICENTER":90.105,"MEAN_ANOMALY":270.0479,"EPHEMERIS_TYPE":0,"CLASSIFICATION_TYPE":"U","NORAD_CAT_ID":43930,"ELEMENT_SET_NO":999,"REV_AT_EPOCH":38405,"BSTAR":0.00027744,"MEAN_MOTION_DOT":1.774e-5,"MEAN_MOTION_DDOT":0},{"OBJECT_NAME":"IRIDIUM 167","OBJECT_ID":"2019-002K","EPOCH":"2026-03-05T09:49:14.859264","MEAN_MOTION":14.34217409,"ECCENTRICITY":0.0001748,"INCLINATION":86.3962,"RA_OF_ASC_NODE":36.9513,"ARG_OF_PERICENTER":91.2224,"MEAN_ANOMALY":268.9172,"EPHEMERIS_TYPE":0,"CLASSIFICATION_TYPE":"U","NORAD_CAT_ID":43931,"ELEMENT_SET_NO":999,"REV_AT_EPOCH":37408,"BSTAR":-1.6132e-5,"MEAN_MOTION_DOT":-2.5e-7,"MEAN_MOTION_DDOT":0},{"OBJECT_NAME":"IRIDIUM 181","OBJECT_ID":"2023-068S","EPOCH":"2026-03-05T14:20:38.462496","MEAN_MOTION":14.43315916,"ECCENTRICITY":0.0002618,"INCLINATION":86.4458,"RA_OF_ASC_NODE":100.1117,"ARG_OF_PERICENTER":97.3562,"MEAN_ANOMALY":262.7937,"EPHEMERIS_TYPE":0,"CLASSIFICATION_TYPE":"U","NORAD_CAT_ID":56726,"ELEMENT_SET_NO":999,"REV_AT_EPOCH":14749,"BSTAR":0.0001263,"MEAN_MOTION_DOT":4.45e-6,"MEAN_MOTION_DDOT":0},{"OBJECT_NAME":"IRIDIUM 177","OBJECT_ID":"2023-068T","EPOCH":"2026-03-05T19:47:16.157184","MEAN_MOTION":14.80248611,"ECCENTRICITY":0.0002345,"INCLINATION":86.1998,"RA_OF_ASC_NODE":17.8566,"ARG_OF_PERICENTER":80.9349,"MEAN_ANOMALY":279.2137,"EPHEMERIS_TYPE":0,"CLASSIFICATION_TYPE":"U","NORAD_CAT_ID":56727,"ELEMENT_SET_NO":999,"REV_AT_EPOCH":15107,"BSTAR":0.00027767,"MEAN_MOTION_DOT":2.137e-5,"MEAN_MOTION_DDOT":0},{"OBJECT_NAME":"IRIDIUM 174","OBJECT_ID":"2023-068U","EPOCH":"2026-03-05T10:25:05.458944","MEAN_MOTION":14.72254634,"ECCENTRICITY":0.0003258,"INCLINATION":86.6107,"RA_OF_ASC_NODE":37.0407,"ARG_OF_PERICENTER":76.5111,"MEAN_ANOMALY":283.6469,"EPHEMERIS_TYPE":0,"CLASSIFICATION_TYPE":"U","NORAD_CAT_ID":56728,"ELEMENT_SET_NO":999,"REV_AT_EPOCH":15075,"BSTAR":0.00022711,"MEAN_MOTION_DOT":1.457e-5,"MEAN_MOTION_DDOT":0},{"OBJECT_NAME":"IRIDIUM 178","OBJECT_ID":"2023-068V","EPOCH":"2026-03-05T13:02:13.449408","MEAN_MOTION":14.80232056,"ECCENTRICITY":0.0002364,"INCLINATION":86.6483,"RA_OF_ASC_NODE":68.6732,"ARG_OF_PERICENTER":100.7997,"MEAN_ANOMALY":259.349,"EPHEMERIS_TYPE":0,"CLASSIFICATION_TYPE":"U","NORAD_CAT_ID":56729,"ELEMENT_SET_NO":999,"REV_AT_EPOCH":15103,"BSTAR":9.2781e-5,"MEAN_MOTION_DOT":7.31e-6,"MEAN_MOTION_DDOT":0},{"OBJECT_NAME":"IRIDIUM 179","OBJECT_ID":"2023-068W","EPOCH":"2026-03-05T12:54:29.520288","MEAN_MOTION":14.80233775,"ECCENTRICITY":0.0002193,"INCLINATION":86.6714,"RA_OF_ASC_NODE":77.3547,"ARG_OF_PERICENTER":94.2333,"MEAN_ANOMALY":265.914,"EPHEMERIS_TYPE":0,"CLASSIFICATION_TYPE":"U","NORAD_CAT_ID":56730,"ELEMENT_SET_NO":999,"REV_AT_EPOCH":15103,"BSTAR":0.00012296,"MEAN_MOTION_DOT":9.6e-6,"MEAN_MOTION_DDOT":0}]
